BEIJING 1               
1 28890U 05043A   26064.77518815  .00000858  00000+0  17505-3 0  9990
2 28890  98.2724 197.5157 0013449 243.5014 116.4809 14.63457085 85528
HUANJING 1A (HJ-1A)     
1 33320U 08041A   26064.79116340  .00002955  00000+0  36229-3 0  9998
2 33320  97.6628  54.6825 0020568 115.6283 244.7059 14.83705464943074
HUANJING 1B (HJ-1B)     
1 33321U 08041B   26064.78283139  .00001079  00000+0  13726-3 0  9992
2 33321  97.6472  58.1482 0036789 160.4737 199.7896 14.83088945943081
YAOGAN-4                
1 33446U 08061A   26064.73906095  .00002020  00000+0  25484-3 0  9991
2 33446  97.9247 359.0702 0015548  51.2045 309.0555 14.82964247930338
DEIMOS-1                
1 35681U 09041A   26064.74611443  .00001202  00000+0  18526-3 0  9994
2 35681  97.7246 226.5367 0002066 123.3932 236.7475 14.75108707891639
UK-DMC 2                
1 35683U 09041C   26064.70366882  .00001711  00000+0  25668-3 0  9996
2 35683  97.8647 202.3144 0001084  90.4256 269.7078 14.75842383891308
DMC3-FM1                
1 40715U 15032A   26064.75447516  .00000654  00000+0  81513-4 0  9991
2 40715  97.6619 293.8980 0006701  44.0258 316.1490 14.85605545574556
DMC3-FM2                
1 40716U 15032B   26064.77682079  .00000795  00000+0  97777-4 0  9994
2 40716  97.6673 295.4219 0007236  47.6694 312.5133 14.85608242574558
DMC3-FM3                
1 40717U 15032C   26064.79989330  .00001349  00000+0  16178-3 0  9998
2 40717  97.6728 297.1301 0006525  48.9214 311.2564 14.85609334574561
